{
  "type": "FeatureCollection",
  "features": [
    {
      "type": "Feature",
      "properties": {
        "norad_id": 41581,
        "name": "INTELSAT 31 (IS-31)",
        "group": "intelsat",
        "lat": -0.003359645869418759,
        "lon": 158.298839515828,
        "alt_km": 35781.31824002214,
        "timestamp": "2025-12-27T10:28:58.458102+00:00",
        "meta_object_name": "INTELSAT 31 (IS-31)",
        "meta_object_id": "2016-035A",
        "meta_epoch": "2025-12-23T19:31:44.703840",
        "meta_mean_motion": 1.00269658,
        "meta_eccentricity": 0.0001926,
        "meta_inclination": 0.0283,
        "meta_ra_of_asc_node": 262.055,
        "meta_arg_of_pericenter": 303.365,
        "meta_mean_anomaly": 85.0534,
        "meta_ephemeris_type": 0,
        "meta_classification_type": "U",
        "meta_norad_cat_id": 41581,
        "meta_element_set_no": 999,
        "meta_rev_at_epoch": 3492,
        "meta_bstar": 0,
        "meta_mean_motion_dot": -1.29e-06,
        "meta_mean_motion_ddot": 0,
        "tle_line1": "1 41581U 16035A   25357.81371185 -.00000129  00000+0  00000+0 0  9991",
        "tle_line2": "2 41581   0.0283 262.0550 0001926 303.3650  85.0534  1.00269658 34922"
      },
      "geometry": {
        "type": "Point",
        "coordinates": [
          158.298839515828,
          -0.003359645869418759
        ]
      }
    },
    {
      "type": "Feature",
      "properties": {
        "norad_id": 41747,
        "name": "INTELSAT 36 (IS-36)",
        "group": "intelsat",
        "lat": -0.020649203771578372,
        "lon": -38.10741441503933,
        "alt_km": 35784.475824716574,
        "timestamp": "2025-12-27T10:28:58.458114+00:00",
        "meta_object_name": "INTELSAT 36 (IS-36)",
        "meta_object_id": "2016-053A",
        "meta_epoch": "2025-12-27T03:03:20.357280",
        "meta_mean_motion": 1.00264918,
        "meta_eccentricity": 8.53e-05,
        "meta_inclination": 0.0102,
        "meta_ra_of_asc_node": 6.9586,
        "meta_arg_of_pericenter": 303.4341,
        "meta_mean_anomaly": 259.7991,
        "meta_ephemeris_type": 0,
        "meta_classification_type": "U",
        "meta_norad_cat_id": 41747,
        "meta_element_set_no": 999,
        "meta_rev_at_epoch": 3422,
        "meta_bstar": 0,
        "meta_mean_motion_dot": -1e-08,
        "meta_mean_motion_ddot": 0,
        "tle_line1": "1 41747U 16053A   25361.12731895 -.00000001  00000+0  00000+0 0  9991",
        "tle_line2": "2 41747   0.0102   6.9586 0000853 303.4341 259.7991  1.00264918 34220"
      },
      "geometry": {
        "type": "Point",
        "coordinates": [
          -38.10741441503933,
          -0.020649203771578372
        ]
      }
    },
    {
      "type": "Feature",
      "properties": {
        "norad_id": 41945,
        "name": "INTELSAT 32E (IS-32E)",
        "group": "intelsat",
        "lat": 0.012628656815843783,
        "lon": -149.75900752232502,
        "alt_km": 35782.68562099968,
        "timestamp": "2025-12-27T10:28:58.458126+00:00",
        "meta_object_name": "INTELSAT 32E (IS-32E)",
        "meta_object_id": "2017-007B",
        "meta_epoch": "2025-12-27T02:31:30.904320",
        "meta_mean_motion": 1.00280959,
        "meta_eccentricity": 2.98e-05,
        "meta_inclination": 0.0263,
        "meta_ra_of_asc_node": 74.6259,
        "meta_arg_of_pericenter": 182.4769,
        "meta_mean_anomaly": 193.4455,
        "meta_ephemeris_type": 0,
        "meta_classification_type": "U",
        "meta_norad_cat_id": 41945,
        "meta_element_set_no": 999,
        "meta_rev_at_epoch": 3250,
        "meta_bstar": 0,
        "meta_mean_motion_dot": -2.46e-06,
        "meta_mean_motion_ddot": 0,
        "tle_line1": "1 41945U 17007B   25361.10521880 -.00000246  00000+0  00000+0 0  9991",
        "tle_line2": "2 41945   0.0263  74.6259 0000298 182.4769 193.4455  1.00280959 32500"
      },
      "geometry": {
        "type": "Point",
        "coordinates": [
          -149.75900752232502,
          0.012628656815843783
        ]
      }
    },
    {
      "type": "Feature",
      "properties": {
        "norad_id": 42818,
        "name": "INTELSAT 35E (IS-35E)",
        "group": "intelsat",
        "lat": -0.004627594200036371,
        "lon": -141.10744787856862,
        "alt_km": 35780.235065629866,
        "timestamp": "2025-12-27T10:28:58.458138+00:00",
        "meta_object_name": "INTELSAT 35E (IS-35E)",
        "meta_object_id": "2017-041A",
        "meta_epoch": "2025-12-27T02:33:53.175744",
        "meta_mean_motion": 1.00273448,
        "meta_eccentricity": 0.0002057,
        "meta_inclination": 0.0173,
        "meta_ra_of_asc_node": 44.1749,
        "meta_arg_of_pericenter": 226.2579,
        "meta_mean_anomaly": 189.3865,
        "meta_ephemeris_type": 0,
        "meta_classification_type": "U",
        "meta_norad_cat_id": 42818,
        "meta_element_set_no": 999,
        "meta_rev_at_epoch": 3109,
        "meta_bstar": 0,
        "meta_mean_motion_dot": -2.15e-06,
        "meta_mean_motion_ddot": 0,
        "tle_line1": "1 42818U 17041A   25361.10686546 -.00000215  00000+0  00000+0 0  9996",
        "tle_line2": "2 42818   0.0173  44.1749 0002057 226.2579 189.3865  1.00273448 31094"
      },
      "geometry": {
        "type": "Point",
        "coordinates": [
          -141.10744787856862,
          -0.004627594200036371
        ]
      }
    },
    {
      "type": "Feature",
      "properties": {
        "norad_id": 42950,
        "name": "INTELSAT 37E (IS-37E)",
        "group": "intelsat",
        "lat": -0.019646713215740137,
        "lon": -124.60347167636816,
        "alt_km": 35774.60374243585,
        "timestamp": "2025-12-27T10:28:58.458151+00:00",
        "meta_object_name": "INTELSAT 37E (IS-37E)",
        "meta_object_id": "2017-059A",
        "meta_epoch": "2025-12-27T02:38:37.722048",
        "meta_mean_motion": 1.00271389,
        "meta_eccentricity": 0.0003123,
        "meta_inclination": 0.0187,
        "meta_ra_of_asc_node": 30.7857,
        "meta_arg_of_pericenter": 233.1292,
        "meta_mean_anomaly": 213.5983,
        "meta_ephemeris_type": 0,
        "meta_classification_type": "U",
        "meta_norad_cat_id": 42950,
        "meta_element_set_no": 999,
        "meta_rev_at_epoch": 3034,
        "meta_bstar": 0,
        "meta_mean_motion_dot": -1.18e-06,
        "meta_mean_motion_ddot": 0,
        "tle_line1": "1 42950U 17059A   25361.11015882 -.00000118  00000+0  00000+0 0  9994",
        "tle_line2": "2 42950   0.0187  30.7857 0003123 233.1292 213.5983  1.00271389 30341"
      },
      "geometry": {
        "type": "Point",
        "coordinates": [
          -124.60347167636816,
          -0.019646713215740137
        ]
      }
    },
    {
      "type": "Feature",
      "properties": {
        "norad_id": 43632,
        "name": "AZERSPACE 2 (IS-38)",
        "group": "intelsat",
        "lat": -0.03081984708028443,
        "lon": -61.47912568030148,
        "alt_km": 35780.524447716234,
        "timestamp": "2025-12-27T10:28:58.458167+00:00",
        "meta_object_name": "AZERSPACE 2 (IS-38)",
        "meta_object_id": "2018-074A",
        "meta_epoch": "2025-12-27T02:56:43.490112",
        "meta_mean_motion": 1.00271001,
        "meta_eccentricity": 0.0001466,
        "meta_inclination": 0.016,
        "meta_ra_of_asc_node": 358.3551,
        "meta_arg_of_pericenter": 277.9492,
        "meta_mean_anomaly": 268.8465,
        "meta_ephemeris_type": 0,
        "meta_classification_type": "U",
        "meta_norad_cat_id": 43632,
        "meta_element_set_no": 999,
        "meta_rev_at_epoch": 2672,
        "meta_bstar": 0,
        "meta_mean_motion_dot": 1.59e-06,
        "meta_mean_motion_ddot": 0,
        "tle_line1": "1 43632U 18074A   25361.12272558  .00000159  00000+0  00000+0 0  9990",
        "tle_line2": "2 43632   0.0160 358.3551 0001466 277.9492 268.8465  1.00271001 26722"
      },
      "geometry": {
        "type": "Point",
        "coordinates": [
          -61.47912568030148,
          -0.03081984708028443
        ]
      }
    },
    {
      "type": "Feature",
      "properties": {
        "norad_id": 43633,
        "name": "HORIZONS-3E",
        "group": "intelsat",
        "lat": -0.016767182427660485,
        "lon": 62.42616204356766,
        "alt_km": 35787.3145671448,
        "timestamp": "2025-12-27T10:28:58.458180+00:00",
        "meta_object_name": "HORIZONS-3E",
        "meta_object_id": "2018-074B",
        "meta_epoch": "2025-12-26T17:15:43.848000",
        "meta_mean_motion": 1.00274781,
        "meta_eccentricity": 7.29e-05,
        "meta_inclination": 0.0491,
        "meta_ra_of_asc_node": 194.9821,
        "meta_arg_of_pericenter": 94.8605,
        "meta_mean_anomaly": 233.5586,
        "meta_ephemeris_type": 0,
        "meta_classification_type": "U",
        "meta_norad_cat_id": 43633,
        "meta_element_set_no": 999,
        "meta_rev_at_epoch": 2661,
        "meta_bstar": 0,
        "meta_mean_motion_dot": -7e-08,
        "meta_mean_motion_ddot": 0,
        "tle_line1": "1 43633U 18074B   25360.71925750 -.00000007  00000+0  00000+0 0  9997",
        "tle_line2": "2 43633   0.0491 194.9821 0000729  94.8605 233.5586  1.00274781 26616"
      },
      "geometry": {
        "type": "Point",
        "coordinates": [
          62.42616204356766,
          -0.016767182427660485
        ]
      }
    }
  ]
}